{"type": "FeatureCollection", "features": [{"type": "Feature", "properties": {"norad_id": 28054, "name": "DMSP 5D-3 F16 (USA 172)", "group": "weather", "lat": -33.44313996794138, "lon": 2.307184112265811, "alt_km": 845.7053308316799, "timestamp": "2025-12-04T21:36:15.516237+00:00", "meta": {"OBJECT_NAME": "DMSP 5D-3 F16 (USA 172)", "OBJECT_ID": "2003-048A", "EPOCH": "2025-12-04T15:30:12.545856", "MEAN_MOTION": 14.14419735, "ECCENTRICITY": 0.00068369, "INCLINATION": 99.0051, "RA_OF_ASC_NODE": 356.0392, "ARG_OF_PERICENTER": 345.6082, "MEAN_ANOMALY": 126.9524, "EPHEMERIS_TYPE": 0, "CLASSIFICATION_TYPE": "U", "NORAD_CAT_ID": 28054, "ELEMENT_SET_NO": 999, "REV_AT_EPOCH": 14198, "BSTAR": 0.00015925666, "MEAN_MOTION_DOT": 2.59e-06, "MEAN_MOTION_DDOT": 0}, "tle": {"line1": "1 28054U 03048A   25338.64597854  .00000259  00000+0  15926-3 0  9994", "line2": "2 28054  99.0051 356.0392 0006836 345.6082 126.9524 14.14419735141985"}}, "geometry": {"type": "Point", "coordinates": [2.307184112265811, -33.44313996794138]}}, {"type": "Feature", "properties": {"norad_id": 28912, "name": "METEOSAT-9 (MSG-2)", "group": "weather", "lat": 4.137347268538573, "lon": 83.31713110856153, "alt_km": 35801.163050849675, "timestamp": "2025-12-04T21:36:15.516312+00:00", "meta": {"OBJECT_NAME": "METEOSAT-9 (MSG-2)", "OBJECT_ID": "2005-049B", "EPOCH": "2025-12-02T20:50:55.807872", "MEAN_MOTION": 1.00271253, "ECCENTRICITY": 0.00040042, "INCLINATION": 8.9157, "RA_OF_ASC_NODE": 56.0648, "ARG_OF_PERICENTER": 185.08, "MEAN_ANOMALY": 189.154, "EPHEMERIS_TYPE": 0, "CLASSIFICATION_TYPE": "U", "NORAD_CAT_ID": 28912, "ELEMENT_SET_NO": 999, "REV_AT_EPOCH": 503, "BSTAR": 0, "MEAN_MOTION_DOT": 1.39e-06, "MEAN_MOTION_DDOT": 0}, "tle": {"line1": "1 28912U 05049B   25336.86870148  .00000139  00000+0  00000+0 0  9992", "line2": "2 28912   8.9157  56.0648 0004004 185.0800 189.1540  1.00271253  5030"}}, "geometry": {"type": "Point", "coordinates": [83.31713110856153, 4.137347268538573]}}, {"type": "Feature", "properties": {"norad_id": 29522, "name": "DMSP 5D-3 F17 (USA 191)", "group": "weather", "lat": -70.8196434637314, "lon": 138.20798567573863, "alt_km": 843.2434618772822, "timestamp": "2025-12-04T21:36:15.516332+00:00", "meta": {"OBJECT_NAME": "DMSP 5D-3 F17 (USA 191)", "OBJECT_ID": "2006-050A", "EPOCH": "2025-12-04T15:19:15.691584", "MEAN_MOTION": 14.14914216, "ECCENTRICITY": 0.00091825, "INCLINATION": 98.7393, "RA_OF_ASC_NODE": 344.1961, "ARG_OF_PERICENTER": 250.1146, "MEAN_ANOMALY": 109.9038, "EPHEMERIS_TYPE": 0, "CLASSIFICATION_TYPE": "U", "NORAD_CAT_ID": 29522, "ELEMENT_SET_NO": 999, "REV_AT_EPOCH": 98490, "BSTAR": 0.00019547476, "MEAN_MOTION_DOT": 3.34e-06, "MEAN_MOTION_DDOT": 0}, "tle": {"line1": "1 29522U 06050A   25338.63837606  .00000334  00000+0  19547-3 0  9999", "line2": "2 29522  98.7393 344.1961 0009182 250.1146 109.9038 14.14914216984901"}}, "geometry": {"type": "Point", "coordinates": [138.20798567573863, -70.8196434637314]}}, {"type": "Feature", "properties": {"norad_id": 32958, "name": "FENGYUN 3A", "group": "weather", "lat": -17.195958573238368, "lon": 95.88628430890098, "alt_km": 836.2689594654885, "timestamp": "2025-12-04T21:36:15.516346+00:00", "meta": {"OBJECT_NAME": "FENGYUN 3A", "OBJECT_ID": "2008-026A", "EPOCH": "2025-12-04T13:54:38.161440", "MEAN_MOTION": 14.19510525, "ECCENTRICITY": 0.00082953, "INCLINATION": 98.6684, "RA_OF_ASC_NODE": 278.2786, "ARG_OF_PERICENTER": 335.6429, "MEAN_ANOMALY": 24.4354, "EPHEMERIS_TYPE": 0, "CLASSIFICATION_TYPE": "U", "NORAD_CAT_ID": 32958, "ELEMENT_SET_NO": 999, "REV_AT_EPOCH": 90779, "BSTAR": 0.00013513725, "MEAN_MOTION_DOT": 2.42e-06, "MEAN_MOTION_DDOT": 0}, "tle": {"line1": "1 32958U 08026A   25338.57960835  .00000242  00000+0  13514-3 0  9991", "line2": "2 32958  98.6684 278.2786 0008295 335.6429  24.4354 14.19510525907793"}}, "geometry": {"type": "Point", "coordinates": [95.88628430890098, -17.195958573238368]}}, {"type": "Feature", "properties": {"norad_id": 35491, "name": "GOES 14", "group": "weather", "lat": -0.49997432349838433, "lon": -70.28202623363894, "alt_km": 35775.09027947191, "timestamp": "2025-12-04T21:36:15.516361+00:00", "meta": {"OBJECT_NAME": "GOES 14", "OBJECT_ID": "2009-033A", "EPOCH": "2025-12-04T13:12:37.577088", "MEAN_MOTION": 1.00272692, "ECCENTRICITY": 0.00041937, "INCLINATION": 1.1765, "RA_OF_ASC_NODE": 85.5028, "ARG_OF_PERICENTER": 151.4845, "MEAN_ANOMALY": 286.46, "EPHEMERIS_TYPE": 0, "CLASSIFICATION_TYPE": "U", "NORAD_CAT_ID": 35491, "ELEMENT_SET_NO": 999, "REV_AT_EPOCH": 464, "BSTAR": 0, "MEAN_MOTION_DOT": -5.4e-07, "MEAN_MOTION_DDOT": 0}, "tle": {"line1": "1 35491U 09033A   25338.55043492 -.00000054  00000+0  00000+0 0  9998", "line2": "2 35491   1.1765  85.5028 0004193 151.4845 286.4600  1.00272692  4646"}}, "geometry": {"type": "Point", "coordinates": [-70.28202623363894, -0.49997432349838433]}}, {"type": "Feature", "properties": {"norad_id": 35951, "name": "DMSP 5D-3 F18 (USA 210)", "group": "weather", "lat": 54.47078926110859, "lon": 147.99107154417098, "alt_km": 831.349794511766, "timestamp": "2025-12-04T21:36:15.516374+00:00", "meta": {"OBJECT_NAME": "DMSP 5D-3 F18 (USA 210)", "OBJECT_ID": "2009-057A", "EPOCH": "2025-12-04T14:13:46.765632", "MEAN_MOTION": 14.14762002, "ECCENTRICITY": 0.00121161, "INCLINATION": 98.8825, "RA_OF_ASC_NODE": 315.0349, "ARG_OF_PERICENTER": 83.9477, "MEAN_ANOMALY": 276.3076, "EPHEMERIS_TYPE": 0, "CLASSIFICATION_TYPE": "U", "NORAD_CAT_ID": 35951, "ELEMENT_SET_NO": 999, "REV_AT_EPOCH": 83207, "BSTAR": 0.00025432073, "MEAN_MOTION_DOT": 4.46e-06, "MEAN_MOTION_DDOT": 0}, "tle": {"line1": "1 35951U 09057A   25338.59290238  .00000446  00000+0  25432-3 0  9995", "line2": "2 35951  98.8825 315.0349 0012116  83.9477 276.3076 14.14762002832077"}}, "geometry": {"type": "Point", "coordinates": [147.99107154417098, 54.47078926110859]}}, {"type": "Feature", "properties": {"norad_id": 36411, "name": "EWS-G2 (GOES 15)", "group": "weather", "lat": 0.20441548683447294, "lon": 99.46645465723809, "alt_km": 35810.63984703311, "timestamp": "2025-12-04T21:36:15.516388+00:00", "meta": {"OBJECT_NAME": "EWS-G2 (GOES 15)", "OBJECT_ID": "2010-008A", "EPOCH": "2025-12-04T14:01:10.426080", "MEAN_MOTION": 1.00267939, "ECCENTRICITY": 0.00060123, "INCLINATION": 0.7923, "RA_OF_ASC_NODE": 86.0459, "ARG_OF_PERICENTER": 170.865, "MEAN_ANOMALY": 88.5235, "EPHEMERIS_TYPE": 0, "CLASSIFICATION_TYPE": "U", "NORAD_CAT_ID": 36411, "ELEMENT_SET_NO": 999, "REV_AT_EPOCH": 5768, "BSTAR": 0, "MEAN_MOTION_DOT": 5.2e-07, "MEAN_MOTION_DDOT": 0}, "tle": {"line1": "1 36411U 10008A   25338.58414845  .00000052  00000+0  00000+0 0  9999", "line2": "2 36411   0.7923  86.0459 0006012 170.8650  88.5235  1.00267939 57680"}}, "geometry": {"type": "Point", "coordinates": [99.46645465723809, 0.20441548683447294]}}, {"type": "Feature", "properties": {"norad_id": 36744, "name": "COMS 1", "group": "weather", "lat": 4.3133892825438584, "lon": 166.16341105474766, "alt_km": 35787.10350020802, "timestamp": "2025-12-04T21:36:15.516404+00:00", "meta": {"OBJECT_NAME": "COMS 1", "OBJECT_ID": "2010-032A", "EPOCH": "2025-12-04T14:20:08.607840", "MEAN_MOTION": 1.00269547, "ECCENTRICITY": 0.00011485, "INCLINATION": 4.3203, "RA_OF_ASC_NODE": 78.0882, "ARG_OF_PERICENTER": 188.9827, "MEAN_ANOMALY": 149.7974, "EPHEMERIS_TYPE": 0, "CLASSIFICATION_TYPE": "U", "NORAD_CAT_ID": 36744, "ELEMENT_SET_NO": 999, "REV_AT_EPOCH": 4913, "BSTAR": 0, "MEAN_MOTION_DOT": -3.32e-06, "MEAN_MOTION_DDOT": 0}, "tle": {"line1": "1 36744U 10032A   25338.59732185 -.00000332  00000+0  00000+0 0  9998", "line2": "2 36744   4.3203  78.0882 0001148 188.9827 149.7974  1.00269547 49130"}}, "geometry": {"type": "Point", "coordinates": [166.16341105474766, 4.3133892825438584]}}, {"type": "Feature", "properties": {"norad_id": 37214, "name": "FENGYUN 3B", "group": "weather", "lat": 80.87518610983486, "lon": -61.51927219867476, "alt_km": 829.6509642377168, "timestamp": "2025-12-04T21:36:15.516416+00:00", "meta": {"OBJECT_NAME": "FENGYUN 3B", "OBJECT_ID": "2010-059A", "EPOCH": "2025-12-04T15:07:01.065216", "MEAN_MOTION": 14.14786316, "ECCENTRICITY": 0.00223962, "INCLINATION": 98.992, "RA_OF_ASC_NODE": 18.5502, "ARG_OF_PERICENTER": 20.6337, "MEAN_ANOMALY": 131.6395, "EPHEMERIS_TYPE": 0, "CLASSIFICATION_TYPE": "U", "NORAD_CAT_ID": 37214, "ELEMENT_SET_NO": 999, "REV_AT_EPOCH": 77991, "BSTAR": 0.00013326605, "MEAN_MOTION_DOT": 2.12e-06, "MEAN_MOTION_DDOT": 0}, "tle": {"line1": "1 37214U 10059A   25338.62987344  .00000212  00000+0  13327-3 0  9999", "line2": "2 37214  98.9920  18.5502 0022396  20.6337 131.6395 14.14786316779912"}}, "geometry": {"type": "Point", "coordinates": [-61.51927219867476, 80.87518610983486]}}, {"type": "Feature", "properties": {"norad_id": 37849, "name": "SUOMI NPP", "group": "weather", "lat": 23.57292992798289, "lon": 100.17762036490525, "alt_km": 825.1443934442723, "timestamp": "2025-12-04T21:36:15.516427+00:00", "meta": {"OBJECT_NAME": "SUOMI NPP", "OBJECT_ID": "2011-061A", "EPOCH": "2025-12-04T14:06:18.334080", "MEAN_MOTION": 14.19510611, "ECCENTRICITY": 0.00019404, "INCLINATION": 98.7761, "RA_OF_ASC_NODE": 276.0032, "ARG_OF_PERICENTER": 134.8225, "MEAN_ANOMALY": 225.3109, "EPHEMERIS_TYPE": 0, "CLASSIFICATION_TYPE": "U", "NORAD_CAT_ID": 37849, "ELEMENT_SET_NO": 999, "REV_AT_EPOCH": 73083, "BSTAR": 0.00011755575, "MEAN_MOTION_DOT": 2.04e-06, "MEAN_MOTION_DDOT": 0}, "tle": {"line1": "1 37849U 11061A   25338.58771220  .00000204  00000+0  11756-3 0  9991", "line2": "2 37849  98.7761 276.0032 0001940 134.8225 225.3109 14.19510611730832"}}, "geometry": {"type": "Point", "coordinates": [100.17762036490525, 23.57292992798289]}}]}